NORAD_CAT_ID,OBJECT_NAME,OBJECT_TYPE,EPOCH,MEAN_MOTION,ECCENTRICITY,INCLINATION,RA_OF_ASC_NODE,ARG_OF_PERICENTER,MEAN_ANOMALY,BSTAR,MEAN_MOTION_DOT,MEAN_MOTION_DDOT,TLE_LINE0,TLE_LINE1,TLE_LINE2,SEMIMAJOR_AXIS,PERIOD,APOGEE,PERIGEE,DECAYED
52866.0,STARLINK-4272,PAYLOAD,2022-06-22 16:00:00,15.90817284,0.0040821,53.2176,20.1018,56.0068,199.8791,-0.0024755,-0.00857117,0.00022904,0 STARLINK-4272,1 52866U 22062AN  22173.66667824 -.00857117  22904-3 -24755-2 0  9995,2 52866  53.2176  20.1018 0040821  56.0068 199.8791 15.90817284  1308,6678.132,90.52,327.257,272.736,0.0
52866.0,STARLINK-4272,PAYLOAD,2022-06-22 22:00:00,15.90410563,0.0038154,53.2174,18.8342,56.6023,191.6585,-0.0025552,-0.00857469,0.00022831,0 STARLINK-4272,1 52866U 22062AN  22173.91667824 -.00857469  22831-3 -25552-2 0  9998,2 52866  53.2174  18.8342 0038154  56.6023 191.6585 15.90410563  1303,6679.27,90.543,326.619,275.651,0.0
52866.0,STARLINK-4272,PAYLOAD,2022-06-23 06:00:00,15.89854519,0.003514,53.2174,17.1416,57.4551,300.0754,-0.0025698,-0.00829443,0.00021393,0 STARLINK-4272,1 52866U 22062AN  22174.25001157 -.00829443  21393-3 -25698-2 0  9991,2 52866  53.2174  17.1416 0035140  57.4551 300.0754 15.89854519  1398,6680.8269999999975,90.574,326.1690000000001,279.216,0.0
52866.0,STARLINK-4272,PAYLOAD,2022-06-23 14:00:01,15.89299307,0.0033372,53.2177,15.4507,57.8638,48.2837,-0.002572,-0.00802442,0.00020053,0 STARLINK-4272,1 52866U 22062AN  22174.58334491 -.00802442  20053-3 -25720-2 0  9995,2 52866  53.2177  15.4507 0033372  57.8638  48.2837 15.89299307  1445,6682.3830000000025,90.606,326.5490000000001,281.948,0.0
52866.0,STARLINK-4272,PAYLOAD,2022-06-23 22:00:00,15.88778104,0.003037,53.2177,13.7644,57.9716,156.1275,-0.0028131,-0.0084684,0.00021981,0 STARLINK-4272,1 52866U 22062AN  22174.91667824 -.00846840  21981-3 -28131-2 0  9991,2 52866  53.2177  13.7644 0030370  57.9716 156.1275 15.88778104  1497,6683.845,90.636,326.008,285.411,0.0
52866.0,STARLINK-4272,PAYLOAD,2022-06-24 06:00:02,15.88236022,0.0027935,53.2174,12.0756,57.5248,263.9499,-0.0029143,-0.00848133,0.0002193,0 STARLINK-4272,1 52866U 22062AN  22175.25002315 -.00848133  21930-3 -29143-2 0  9992,2 52866  53.2174  12.0756 0027935  57.5248 263.9499 15.88236022  1559,6685.365,90.667,325.906,288.555,0.0
52866.0,STARLINK-4272,PAYLOAD,2022-06-24 14:00:01,15.87673425,0.002566,53.2175,10.3892,59.0895,8.9826,-0.0028635,-0.00806132,0.00019913,0 STARLINK-4272,1 52866U 22062AN  22175.58334491 -.00806132  19913-3 -28635-2 0  9997,2 52866  53.2175  10.3892 0025660  59.0895   8.9826 15.87673425  1305,6686.945,90.699,325.968,291.651,0.0
52866.0,STARLINK-4272,PAYLOAD,2022-06-24 20:00:01,15.8727043,0.0023289,53.2173,9.1275,59.66,357.974,-0.0029644,-0.0081376,0.00020177,0 STARLINK-4272,1 52866U 22062AN  22175.83334491 -.00813760  20177-3 -29644-2 0  9995,2 52866  53.2173   9.1275 0023289  59.6600 357.9740 15.87270430  1647,6688.076,90.722,325.517,294.366,0.0
52866.0,STARLINK-4272,PAYLOAD,2022-06-24 22:00:01,15.87141432,0.0022847,53.2176,8.7067,59.5745,114.5633,-0.0030376,-0.00827677,0.00020776,0 STARLINK-4272,1 52866U 22062AN  22175.91668981 -.00827677  20776-3 -30376-2 0  9999,2 52866  53.2176   8.7067 0022847  59.5745 114.5633 15.87141432  1302,6688.439,90.729,325.585,295.023,0.0
52866.0,STARLINK-4272,PAYLOAD,2022-06-25 14:00:01,15.86054716,0.0018136,53.2178,5.3398,60.1256,324.0014,-0.003218,-0.00760245,0.0,0 STARLINK-4272,1 52866U 22062AN  22176.58334491 -.00760245  00000-0 -32180-2 0  9996,2 52866  53.2178   5.3398 0018136  60.1256 324.0014 15.86054716  1763,6691.494000000002,90.791,325.494,301.223,0.0
52866.0,STARLINK-4272,PAYLOAD,2022-06-25 22:00:00,15.85505849,0.0015527999999999,53.2175,3.6613,59.357,68.8197,-0.0032633,-0.0074808,0.0,0 STARLINK-4272,1 52866U 22062AN  22176.91667824 -.00748080  00000-0 -32633-2 0  9998,2 52866  53.2175   3.6613 0015528  59.3570  68.8197 15.85505849  1304,6693.038000000001,90.823,325.296,304.51,0.0
52866.0,STARLINK-4272,PAYLOAD,2022-06-26 14:00:01,15.84437588,0.0010721,53.2177,0.3023,56.9367,277.4436,-0.0036031,-0.00776541,0.0,0 STARLINK-4272,1 52866U 22062AN  22177.58335648 -.00776541  00000-0 -36031-2 0  9997,2 52866  53.2177   0.3023 0010721  56.9367 277.4436 15.84437588  1927,6696.045999999999,90.884,325.09,310.732,0.0
52866.0,STARLINK-4272,PAYLOAD,2022-06-26 22:00:00,15.83876944,0.0008261,53.2176,358.6278,54.4706,21.9421,-0.0035429,-0.00744004,0.0,0 STARLINK-4272,1 52866U 22062AN  22177.91667824 -.00744004  00000-0 -35429-2 0  9997,2 52866  53.2176 358.6278 0008261  54.4706  21.9421 15.83876944  1303,6697.626,90.916,325.024,313.958,0.0
52866.0,STARLINK-4272,PAYLOAD,2022-06-27 06:00:00,15.83347111,0.0005537,53.2176,356.9507,46.7765,131.0742,-0.0037552,-0.00765247,0.0,0 STARLINK-4272,1 52866U 22062AN  22178.25001157 -.00765247  00000-0 -37552-2 0  9997,2 52866  53.2176 356.9507 0005537  46.7765 131.0742 15.83347111  2029,6699.12,90.947,324.694,317.276,0.0
52866.0,STARLINK-4272,PAYLOAD,2022-06-27 14:00:01,15.82814779,0.0004112,53.2176,355.2771,35.4772,243.1591,-0.003952,-0.00782871,0.0,0 STARLINK-4272,1 52866U 22062AN  22178.58334491 -.00782871  00000-0 -39520-2 0  9992,2 52866  53.2176 355.2771 0004112  35.4772 243.1591 15.82814779  1300,6700.621999999999,90.977,325.242,319.732,0.0
52866.0,STARLINK-4272,PAYLOAD,2022-06-27 22:00:00,15.82259762,0.0003168999999999,53.2173,353.6065,14.8354,3.9417,-0.0039359,-0.00760989,0.0,0 STARLINK-4272,1 52866U 22062AN  22178.91667824 -.00760989  00000-0 -39359-2 0  9994,2 52866  53.2173 353.6065 0003169  14.8354   3.9417 15.82259762  2139,6702.189,91.009,326.178,321.93,0.0
52866.0,STARLINK-4272,PAYLOAD,2022-06-28 14:00:01,15.81177118,0.0002814,53.2178,350.2639,13.3118,203.7846,-0.0041621,-0.00764441,0.0,0 STARLINK-4272,1 52866U 22062AN  22179.58334491 -.00764441  00000-0 -41621-2 0  9991,2 52866  53.2178 350.2639 0002814  13.3118 203.7846 15.81177118  1309,6705.248000000001,91.071,329.0,325.226,0.0
52866.0,STARLINK-4272,PAYLOAD,2022-06-28 22:00:00,15.806334,0.000257,53.2175,348.5971,11.9447,303.3328,-0.0042537,-0.00761893,0.0,0 STARLINK-4272,1 52866U 22062AN  22179.91667824 -.00761893  00000-0 -42537-2 0  9992,2 52866  53.2175 348.5971 0002570  11.9447 303.3328 15.80633400  1305,6706.785,91.103,330.374,326.927,0.0
52866.0,STARLINK-4272,PAYLOAD,2022-06-29 14:00:01,15.79550102,0.0003205,53.2175,345.2625,0.2045,149.5353,-0.0044912,-0.00765168,0.0,0 STARLINK-4272,1 52866U 22062AN  22180.58334491 -.00765168  00000-0 -44912-2 0  9996,2 52866  53.2175 345.2625 0003205   0.2045 149.5353 15.79550102  1309,6709.851,91.165,333.867,329.566,0.0
52866.0,STARLINK-4272,PAYLOAD,2022-06-29 22:00:00,15.78998916,0.0004805,53.2173,343.5996,240.7239,5.244,-0.0045049,-0.00750362,0.0,0 STARLINK-4272,1 52866U 22062AN  22180.91667824 -.00750362  00000-0 -45049-2 0  9994,2 52866  53.2173 343.5996 0004805 240.7239   5.2440 15.78998916  1305,6711.413000000001,91.197,336.5030000000001,330.05300000000005,0.0
52866.0,STARLINK-4272,PAYLOAD,2022-06-30 14:00:01,15.77926013,9.92e-05,53.2177,340.2734,24.8202,51.6408,-0.0048717,-0.00769707,0.0,0 STARLINK-4272,1 52866U 22062AN  22181.58334491 -.00769707  00000-0 -48717-2 0  9997,2 52866  53.2177 340.2734 0000992  24.8202  51.6408 15.77926013  1304,6714.455,91.259,336.986,335.654,0.0
52866.0,STARLINK-4272,PAYLOAD,2022-06-30 22:00:00,15.77375149,0.0001239,53.2173,338.6142,59.1208,111.6124,-0.0048915,-0.00755265,0.0,0 STARLINK-4272,1 52866U 22062AN  22181.91667824 -.00755265  00000-0 -48915-2 0  9997,2 52866  53.2173 338.6142 0001239  59.1208 111.6124 15.77375149  1306,6716.018,91.291,338.715,337.051,0.0
52866.0,STARLINK-4272,PAYLOAD,2022-07-01 14:00:01,15.76295025,0.0001216,53.2174,335.296,50.9857,306.3314,-0.0051961,-0.0076373,0.0,0 STARLINK-4272,1 52866U 22062AN  22182.58334491 -.00763730  00000-0 -51961-2 0  9993,2 52866  53.2174 335.2960 0001216  50.9857 306.3314 15.76295025  1309,6719.0859999999975,91.353,341.76800000000014,340.134,0.0
52866.0,STARLINK-4272,PAYLOAD,2022-07-01 22:00:00,15.75750401,0.000106,53.2172,333.6407,71.6441,17.9875,-0.0052895,-0.00759278,0.0,0 STARLINK-4272,1 52866U 22062AN  22182.91667824 -.00759278  00000-0 -52895-2 0  9998,2 52866  53.2172 333.6407 0001060  71.6441  17.9875 15.75750401  2762,6720.634,91.385,343.211,341.786,0.0
52866.0,STARLINK-4272,PAYLOAD,2022-07-02 14:00:01,15.74665906,0.0001363,53.2177,330.3309,49.2112,223.0943,-0.005557,-0.00760493,0.0,0 STARLINK-4272,1 52866U 22062AN  22183.58334491 -.00760493  00000-0 -55570-2 0  9997,2 52866  53.2177 330.3309 0001363  49.2112 223.0943 15.74665906  1303,6723.719,91.448,346.5,344.668,0.0
52866.0,STARLINK-4272,PAYLOAD,2022-07-02 22:00:00,15.74124774,0.000102,53.2171,328.6793,60.7174,301.9458,-0.0057093999999999,-0.00762809,0.0,0 STARLINK-4272,1 52866U 22062AN  22183.91667824 -.00762809  00000-0 -57094-2 0  9999,2 52866  53.2171 328.6793 0001020  60.7174 301.9458 15.74124774  2929,6725.26,91.479,347.811,346.439,0.0
52866.0,STARLINK-4272,PAYLOAD,2022-07-03 14:00:01,15.73202625,0.0001505,53.2172,325.3774,42.6973,138.8239,2.2739e-05,2.572e-05,0.0,0 STARLINK-4272,1 52866U 22062AN  22184.58334491  .00002572  00000-0  22739-4 0  9996,2 52866  53.2172 325.3774 0001505  42.6973 138.8239 15.73202625  3024,6727.888000000001,91.533,350.765,348.74,0.0
52866.0,STARLINK-4272,PAYLOAD,2022-07-03 22:00:00,15.73263869,0.000127,53.2154,323.7292,36.5594,233.932,-0.00015955,-0.00023012,0.0,0 STARLINK-4272,1 52866U 22062AN  22184.91667824 -.00023012  00000-0 -15955-3 0  9997,2 52866  53.2154 323.7292 0001270  36.5594 233.9320 15.73263869  1305,6727.7130000000025,91.529,350.43300000000005,348.724,0.0
52866.0,STARLINK-4272,PAYLOAD,2022-07-04 06:00:00,15.73178863,0.0001306,53.2158,322.0775,50.909,308.5739,0.00040354,0.00056343,0.0,0 STARLINK-4272,1 52866U 22062AN  22185.25001157  .00056343  00000-0  40354-3 0  9998,2 52866  53.2158 322.0775 0001306  50.9090 308.5739 15.73178863  3133,6727.955,91.534,350.699,348.94199999999995,0.0
